NORAD_CAT_ID,OBJECT_NAME,OBJECT_TYPE,EPOCH,MEAN_MOTION,ECCENTRICITY,INCLINATION,RA_OF_ASC_NODE,ARG_OF_PERICENTER,MEAN_ANOMALY,BSTAR,MEAN_MOTION_DOT,MEAN_MOTION_DDOT,TLE_LINE0,TLE_LINE1,TLE_LINE2,SEMIMAJOR_AXIS,PERIOD,APOGEE,PERIGEE,DECAYED
56463.0,STARLINK-6051,PAYLOAD,2023-10-22 01:46:22,14.98372838,0.0003191,70.0007,177.1552,272.9763,87.1031,0.00051406,6.053e-05,0.0,0 STARLINK-6051,1 56463U 23064R   23295.07386793  .00006053  00000-0  51406-3 0  9996,2 56463  70.0007 177.1552 0003191 272.9763  87.1031 14.98372838 25345,6950.06,96.104,574.143,569.708,0.0
56463.0,STARLINK-6051,PAYLOAD,2023-10-22 09:47:05,14.98353414,0.0003201,70.0007,176.3136,280.185,79.8948,-0.00035253,-4.299e-05,0.0,0 STARLINK-6051,1 56463U 23064R   23295.40769863 -.00004299  00000-0 -35253-3 0  9990,2 56463  70.0007 176.3136 0003201 280.1850  79.8948 14.98353414 25393,6950.12,96.105,574.21,569.761,0.0
56463.0,STARLINK-6051,PAYLOAD,2023-10-22 19:23:55,14.98313203,0.0002916,70.0005,175.3038,258.8136,101.2695,3.0353e-05,2.69e-06,0.0,0 STARLINK-6051,1 56463U 23064R   23295.80827779  .00000269  00000-0  30353-4 0  9993,2 56463  70.0005 175.3038 0002916 258.8136 101.2695 14.98313203 25450,6950.245,96.108,574.137,570.083,0.0
56463.0,STARLINK-6051,PAYLOAD,2023-10-22 22:36:11,14.98313926,0.0002935,70.0004,174.967,258.9075,101.1755,2.8583e-05,2.48e-06,0.0,0 STARLINK-6051,1 56463U 23064R   23295.94179875  .00000248  00000-0  28583-4 0  9994,2 56463  70.0004 174.9670 0002935 258.9075 101.1755 14.98313926 25111,6950.243,96.108,574.147,570.068,0.0
56463.0,STARLINK-6051,PAYLOAD,2023-10-23 19:25:55,14.98334487,0.0003255,69.9993,172.7792,266.6561,93.4226,-7.6077e-05,-1.001e-05,0.0,0 STARLINK-6051,1 56463U 23064R   23296.80967118 -.00001001  00000-0 -76077-4 0  9996,2 56463  69.9993 172.7792 0003255 266.6561  93.4226 14.98334487 25603,6950.179,96.107,574.306,569.782,0.0
56463.0,STARLINK-6051,PAYLOAD,2023-10-23 22:38:11,14.98337698,0.0003114,69.9996,172.4431,271.2301,88.8501,-4.179e-05,-5.92e-06,0.0,0 STARLINK-6051,1 56463U 23064R   23296.94318835 -.00000592  00000-0 -41790-4 0  9995,2 56463  69.9996 172.4431 0003114 271.2301  88.8501 14.98337698 25264,6950.169,96.107,574.198,569.87,0.0
56463.0,STARLINK-6051,PAYLOAD,2023-10-24 01:50:27,14.98338614,0.0002989,70.0,172.1063,270.559,89.5227,-1.3817e-05,-2.58e-06,0.0,0 STARLINK-6051,1 56463U 23064R   23297.07670661 -.00000258  00000-0 -13817-4 0  9996,2 56463  70.0000 172.1063 0002989 270.5590  89.5227 14.98338614 25286,6950.166,96.106,574.109,569.954,0.0
56463.0,STARLINK-6051,PAYLOAD,2023-10-25 01:52:28,14.98332057,0.0002851,70.0005,169.5822,267.3,92.7833,0.00016522,1.879e-05,0.0,0 STARLINK-6051,1 56463U 23064R   23298.07810381  .00001879  00000-0  16522-3 0  9995,2 56463  70.0005 169.5822 0002851 267.3000  92.7833 14.98332057 25792,6950.187,96.107,574.033,570.07,0.0
56463.0,STARLINK-6051,PAYLOAD,2023-10-25 22:42:13,14.98316849,0.0002793,70.0008,167.3924,269.8402,90.2437,0.00018569,2.123e-05,0.0,0 STARLINK-6051,1 56463U 23064R   23298.94599100  .00002123  00000-0  18569-3 0  9990,2 56463  70.0008 167.3924 0002793 269.8402  90.2437 14.98316849 25561,6950.234,96.108,574.04,570.157,0.0
56463.0,STARLINK-6051,PAYLOAD,2023-10-26 01:54:29,14.98327789,0.0003186,70.0011,167.0557,282.8758,77.2045,7.1373e-05,7.59e-06,0.0,0 STARLINK-6051,1 56463U 23064R   23299.07950812  .00000759  00000-0  71373-4 0  9992,2 56463  70.0011 167.0557 0003186 282.8758  77.2045 14.98327789 25947,6950.2,96.107,574.279,569.85,0.0
56463.0,STARLINK-6051,PAYLOAD,2023-10-26 22:44:14,14.98332796,0.0002533,70.0005,164.8667,271.3056,88.7813,-0.00016714,-2.087e-05,0.0,0 STARLINK-6051,1 56463U 23064R   23299.94738731 -.00002087  00000-0 -16714-3 0  9997,2 56463  70.0005 164.8667 0002533 271.3056  88.7813 14.98332796 25715,6950.184,96.107,573.81,570.289,0.0
56463.0,STARLINK-6051,PAYLOAD,2023-10-27 00:20:29,14.98232721,0.0003421,70.0007,164.699,272.9441,87.1326,-0.0012948,-0.0001547,0.0,0 STARLINK-6051,1 56463U 23064R   23300.01423085 -.00015470  00000-0 -12948-2 0  9995,2 56463  70.0007 164.6990 0003421 272.9441  87.1326 14.98232721 26086,6950.494,96.113,574.736,569.981,0.0
56463.0,STARLINK-6051,PAYLOAD,2023-10-27 13:09:28,14.98330069,0.0002987,70.0008,163.3523,276.118,83.9639,-0.0013348,-0.00015983,0.0,0 STARLINK-6051,1 56463U 23064R   23300.54825031 -.00015983  00000-0 -13348-2 0  9994,2 56463  70.0008 163.3523 0002987 276.1180  83.9639 14.98330069 26161,6950.193,96.107,574.134,569.982,0.0
56463.0,STARLINK-6051,PAYLOAD,2023-10-27 14:45:34,14.98319659,0.0003252,70.0007,163.1844,269.8454,90.2332,-7.2485e-06,-1.79e-06,0.0,0 STARLINK-6051,1 56463U 23064R   23300.61498825 -.00000179  00000-0 -72485-5 0  9990,2 56463  70.0007 163.1844 0003252 269.8454  90.2332 14.98319659 25817,6950.225,96.108,574.35,569.83,0.0
56463.0,STARLINK-6051,PAYLOAD,2023-10-27 21:10:00,14.98416387,0.0002904,70.0011,162.511,256.7994,103.2841,0.0010683,0.00012705,0.0,0 STARLINK-6051,1 56463U 23064R   23300.88194464  .00012705  00000-0  10683-2 0  9996,2 56463  70.0011 162.5110 0002904 256.7994 103.2841 14.98416387 26219,6949.926,96.101,573.809,569.773,0.0
56463.0,STARLINK-6051,PAYLOAD,2023-10-28 00:22:13,14.98458374,0.0003356,69.9998,162.1744,269.6031,90.4744,0.0014655,0.00017495,0.0,0 STARLINK-6051,1 56463U 23064R   23301.01543009  .00017495  00000-0  14655-2 0  9999,2 56463  69.9998 162.1744 0003356 269.6031  90.4744 14.98458374 26239,6949.796,96.099,573.993,569.329,0.0
56463.0,STARLINK-6051,PAYLOAD,2023-10-28 08:23:03,14.98321449,0.000302,69.9996,161.3334,268.0581,92.0232,-0.00010499,-1.345e-05,0.0,0 STARLINK-6051,1 56463U 23064R   23301.34935068 -.00001345  00000-0 -10499-3 0  9997,2 56463  69.9996 161.3334 0003020 268.0581  92.0232 14.98321449 26281,6950.219,96.108,574.183,569.985,0.0
56463.0,STARLINK-6051,PAYLOAD,2023-10-28 21:12:07,14.98345687,0.0002612,69.9996,159.987,270.3387,89.7473,-2.0202e-05,-3.34e-06,0.0,0 STARLINK-6051,1 56463U 23064R   23301.88341553 -.00000334  00000-0 -20202-4 0  9997,2 56463  69.9996 159.9870 0002612 270.3387  89.7473 14.98345687 26364,6950.144,96.106,573.825,570.194,0.0
56463.0,STARLINK-6051,PAYLOAD,2023-10-29 00:24:23,14.98331523,0.0002836,69.9996,159.6502,264.2329,95.8506,-2.4719e-06,-1.22e-06,0.0,0 STARLINK-6051,1 56463U 23064R   23302.01694298 -.00000122  00000-0 -24719-5 0  9993,2 56463  69.9996 159.6502 0002836 264.2329  95.8506 14.98331523 26380,6950.188,96.107,574.024,570.082,0.0
56463.0,STARLINK-6051,PAYLOAD,2023-10-29 13:13:28,14.98325774,0.0003027,69.9991,158.3042,268.9981,91.0831,0.0001093,1.211e-05,0.0,0 STARLINK-6051,1 56463U 23064R   23302.55102311  .00001211  00000-0  10930-3 0  9998,2 56463  69.9991 158.3042 0003027 268.9981  91.0831 14.98325774 26108,6950.206,96.107,574.175,569.967,0.0
56463.0,STARLINK-6051,PAYLOAD,2023-10-29 21:14:08,14.98327307,0.0003002,69.9995,157.4623,249.7525,110.3311,3.4929e-05,3.24e-06,0.0,0 STARLINK-6051,1 56463U 23064R   23302.88482309  .00000324  00000-0  34929-4 0  9991,2 56463  69.9995 157.4623 0003002 249.7525 110.3311 14.98327307 26158,6950.201,96.107,574.153,569.98,0.0
56463.0,STARLINK-6051,PAYLOAD,2023-10-30 00:26:17,14.98419591,0.0003212,69.9993,157.1254,274.4621,85.6172,0.0010585,0.00012589,0.0,0 STARLINK-6051,1 56463U 23064R   23303.01826364  .00012589  00000-0  10585-2 0  9996,2 56463  69.9993 157.1254 0003212 274.4621  85.6172 14.98419591 26536,6949.916,96.101,574.013,569.549,0.0
56463.0,STARLINK-6051,PAYLOAD,2023-10-30 13:15:30,14.98317654,0.0003151,69.9995,155.7807,273.4151,86.6648,-3.8505e-05,-5.52e-06,0.0,0 STARLINK-6051,1 56463U 23064R   23303.55243132 -.00000552  00000-0 -38505-4 0  9994,2 56463  69.9995 155.7807 0003151 273.4151  86.6648 14.98317654 26610,6950.231,96.108,574.286,569.906,0.0
56463.0,STARLINK-6051,PAYLOAD,2023-10-30 21:16:10,14.98302825,0.0002803,70.0002,154.9379,274.6939,85.39,0.00034084,3.973e-05,0.0,0 STARLINK-6051,1 56463U 23064R   23303.88623216  .00003973  00000-0  34084-3 0  9990,2 56463  70.0002 154.9379 0002803 274.6939  85.3900 14.98302825 26304,6950.277,96.109,574.09,570.194,0.0
56463.0,STARLINK-6051,PAYLOAD,2023-10-31 00:28:21,14.98382828,0.0003189,69.9993,154.6009,269.8378,90.2415,0.00080274,9.511e-05,0.0,0 STARLINK-6051,1 56463U 23064R   23304.01969304  .00009511  00000-0  80274-3 0  9993,2 56463  69.9993 154.6009 0003189 269.8378  90.2415 14.98382828 26686,6950.03,96.104,574.111,569.678,0.0
56463.0,STARLINK-6051,PAYLOAD,2023-10-31 13:17:30,14.98333231,0.0002901,70.0005,153.2552,273.871,86.2117,-6.1985e-05,-8.33e-06,0.0,0 STARLINK-6051,1 56463U 23064R   23304.55382488 -.00000833  00000-0 -61985-4 0  9993,2 56463  70.0005 153.2552 0002901 273.8710  86.2117 14.98333231 26764,6950.183,96.107,574.064,570.032,0.0
56463.0,STARLINK-6051,PAYLOAD,2023-10-31 14:53:38,14.98333417,0.0002833,70.0004,153.0875,273.7378,86.3457,-2.1197e-05,-3.46e-06,0.0,0 STARLINK-6051,1 56463U 23064R   23304.62058332 -.00000346  00000-0 -21197-4 0  9999,2 56463  70.0004 153.0875 0002833 273.7378  86.3457 14.98333417 26418,6950.182,96.107,574.016,570.078,0.0
56463.0,STARLINK-6051,PAYLOAD,2023-10-31 21:18:12,14.98313635,0.0002324,70.0001,152.4138,263.158,96.9315,-0.0002136,-2.639e-05,0.0,0 STARLINK-6051,1 56463U 23064R   23304.88764107 -.00002639  00000-0 -21360-3 0  9999,2 56463  70.0001 152.4138 0002324 263.1580  96.9315 14.98313635 26817,6950.243,96.108,573.724,570.493,0.0
56463.0,STARLINK-6051,PAYLOAD,2023-11-01 06:55:01,14.98277879,0.0002712,69.9997,151.4038,270.5681,89.5167,0.00038795,4.533e-05,0.0,0 STARLINK-6051,1 56463U 23064R   23305.28821555  .00004533  00000-0  38795-3 0  9998,2 56463  69.9997 151.4038 0002712 270.5681  89.5167 14.98277879 26879,6950.354,96.11,574.104,570.334,0.0
56463.0,STARLINK-6051,PAYLOAD,2023-11-01 14:55:40,14.98334774,0.0003096,69.9997,150.5616,279.7276,80.3533,-0.00041654,-5.06e-05,0.0,0 STARLINK-6051,1 56463U 23064R   23305.62199963 -.00005060  00000-0 -41654-3 0  9993,2 56463  69.9997 150.5616 0003096 279.7276  80.3533 14.98334774 26568,6950.178,96.107,574.195,569.891,0.0
